{
  "norad_id": 48133,
  "name": "STARLINK-2475",
  "history": [
    {
      "epoch": "2026-03-28T16:25:29.034048Z",
      "apogee_km": 476.29799906836706,
      "perigee_km": 474.1309693290632,
      "latitude_deg": -7.092689026045329e-06,
      "longitude_deg": 4.63014391239918,
      "height_km": 476.21707911890684,
      "semi_major_axis_km": 6853.351484198715,
      "eccentricity": 0.0001581,
      "inclination_deg": 53.1615,
      "raan_deg": 77.1024,
      "arg_perigee_deg": 95.5495,
      "mean_anomaly_deg": 264.5686,
      "mean_motion_rev_day": 15.30200196
    },
    {
      "epoch": "2026-03-29T03:23:51.099360Z",
      "apogee_km": 476.0508889508101,
      "perigee_km": 474.32933318051073,
      "latitude_deg": -1.6328274553762575e-05,
      "longitude_deg": -162.53793853497123,
      "height_km": 476.27754668601915,
      "semi_major_axis_km": 6853.32711106566,
      "eccentricity": 0.0001256,
      "inclination_deg": 53.1615,
      "raan_deg": 74.9769,
      "arg_perigee_deg": 102.693,
      "mean_anomaly_deg": 257.4211,
      "mean_motion_rev_day": 15.30208359
    },
    {
      "epoch": "2026-03-30T04:28:42.501792Z",
      "apogee_km": 476.1889580766583,
      "perigee_km": 474.31250051637653,
      "latitude_deg": -4.4814353062637396e-05,
      "longitude_deg": 175.36512627749087,
      "height_km": 476.169475378983,
      "semi_major_axis_km": 6853.387729296517,
      "eccentricity": 0.0001369,
      "inclination_deg": 53.1599,
      "raan_deg": 70.1242,
      "arg_perigee_deg": 91.2713,
      "mean_anomaly_deg": 268.8444,
      "mean_motion_rev_day": 15.30188057
    },
    {
      "epoch": "2026-03-30T06:02:45.873312Z",
      "apogee_km": 476.5937480695393,
      "perigee_km": 473.8857047898573,
      "latitude_deg": 3.193022166868657e-05,
      "longitude_deg": 151.48315635495098,
      "height_km": 476.047656732,
      "semi_major_axis_km": 6853.376726429698,
      "eccentricity": 0.00019757,
      "inclination_deg": 53.1603,
      "raan_deg": 69.8206,
      "arg_perigee_deg": 86.2238,
      "mean_anomaly_deg": 273.8989,
      "mean_motion_rev_day": 15.30191742
    },
    {
      "epoch": "2026-03-30T07:36:49.035744Z",
      "apogee_km": 476.24173706544934,
      "perigee_km": 474.2587779963551,
      "latitude_deg": -2.512246770737685e-05,
      "longitude_deg": 127.60196033357688,
      "height_km": 476.1029240859787,
      "semi_major_axis_km": 6853.3872575309015,
      "eccentricity": 0.00014467,
      "inclination_deg": 53.1601,
      "raan_deg": 69.517,
      "arg_perigee_deg": 87.3884,
      "mean_anomaly_deg": 272.7282,
      "mean_motion_rev_day": 15.30188215
    },
    {
      "epoch": "2026-03-30T23:17:21.005664Z",
      "apogee_km": 476.1951482969116,
      "perigee_km": 474.22851131670996,
      "latitude_deg": 2.4387035567869324e-07,
      "longitude_deg": -111.20919986071311,
      "height_km": 475.9965908642659,
      "semi_major_axis_km": 6853.3488298068105,
      "eccentricity": 0.00014348,
      "inclination_deg": 53.1583,
      "raan_deg": 66.4828,
      "arg_perigee_deg": 83.4059,
      "mean_anomaly_deg": 276.7105,
      "mean_motion_rev_day": 15.30201085
    },
    {
      "epoch": "2026-03-31T14:57:52.819200Z",
      "apogee_km": 476.6127269269882,
      "perigee_km": 473.79600362585916,
      "latitude_deg": 2.2767424502116578e-05,
      "longitude_deg": 9.976191365988047,
      "height_km": 475.61727372039235,
      "semi_major_axis_km": 6853.341365276423,
      "eccentricity": 0.0002055,
      "inclination_deg": 53.1597,
      "raan_deg": 63.4445,
      "arg_perigee_deg": 69.8909,
      "mean_anomaly_deg": 290.2313,
      "mean_motion_rev_day": 15.30203585
    },
    {
      "epoch": "2026-04-01T14:28:41.625120Z",
      "apogee_km": 476.11127889037016,
      "perigee_km": 474.39518997566665,
      "latitude_deg": 1.3852315773475e-05,
      "longitude_deg": 11.761760515179981,
      "height_km": 476.09189913961666,
      "semi_major_axis_km": 6853.390234433018,
      "eccentricity": 0.0001252,
      "inclination_deg": 53.1604,
      "raan_deg": 58.8991,
      "arg_perigee_deg": 86.0253,
      "mean_anomaly_deg": 274.0891,
      "mean_motion_rev_day": 15.30187218
    },
    {
      "epoch": "2026-04-02T13:59:29.622336Z",
      "apogee_km": 476.0628428504151,
      "perigee_km": 474.35526314784875,
      "latitude_deg": 1.59430462466535e-05,
      "longitude_deg": 13.542216314551062,
      "height_km": 475.7846174263938,
      "semi_major_axis_km": 6853.346052999132,
      "eccentricity": 0.00012458,
      "inclination_deg": 53.1591,
      "raan_deg": 54.3452,
      "arg_perigee_deg": 67.8014,
      "mean_anomaly_deg": 292.3119,
      "mean_motion_rev_day": 15.30202015
    }
  ]
}